STARLINK-2022           
1 47643U 21012Z   23226.93888688  .00021017  00000+0  14258-2 0  9995
2 47643  53.0528 301.3509 0001103  70.3327 289.7780 15.06395917138400
